[{"OBJECT_NAME":"STARLINK-31888","OBJECT_ID":"2024-093G","EPOCH":"2025-12-25T10:41:35.310912","MEAN_MOTION":15.27557115,"ECCENTRICITY":9.43e-5,"INCLINATION":42.9998,"RA_OF_ASC_NODE":267.937,"ARG_OF_PERICENTER":283.4458,"MEAN_ANOMALY":76.6288,"EPHEMERIS_TYPE":0,"CLASSIFICATION_TYPE":"U","NORAD_CAT_ID":59788,"ELEMENT_SET_NO":999,"REV_AT_EPOCH":9134,"BSTAR":0.00012166,"MEAN_MOTION_DOT":3.085e-5,"MEAN_MOTION_DDOT":0},{"OBJECT_NAME":"STARLINK-31863","OBJECT_ID":"2024-093H","EPOCH":"2025-12-25T10:37:53.091840","MEAN_MOTION":15.27583317,"ECCENTRICITY":5.87e-5,"INCLINATION":42.9996,"RA_OF_ASC_NODE":267.9232,"ARG_OF_PERICENTER":352.659,"MEAN_ANOMALY":7.4253,"EPHEMERIS_TYPE":0,"CLASSIFICATION_TYPE":"U","NORAD_CAT_ID":59789,"ELEMENT_SET_NO":999,"REV_AT_EPOCH":9134,"BSTAR":-1.1201e-5,"MEAN_MOTION_DOT":-5.7e-6,"MEAN_MOTION_DDOT":0},{"OBJECT_NAME":"STARLINK-31873","OBJECT_ID":"2024-093J","EPOCH":"2025-12-25T03:01:53.436288","MEAN_MOTION":15.27581212,"ECCENTRICITY":0.00012472,"INCLINATION":42.9972,"RA_OF_ASC_NODE":269.8446,"ARG_OF_PERICENTER":252.9631,"MEAN_ANOMALY":107.1084,"EPHEMERIS_TYPE":0,"CLASSIFICATION_TYPE":"U","NORAD_CAT_ID":59790,"ELEMENT_SET_NO":999,"REV_AT_EPOCH":9129,"BSTAR":9.6370723e-5,"MEAN_MOTION_DOT":2.391e-5,"MEAN_MOTION_DDOT":0},{"OBJECT_NAME":"STARLINK-31865","OBJECT_ID":"2024-093K","EPOCH":"2025-12-25T03:07:26.301792","MEAN_MOTION":15.27584303,"ECCENTRICITY":0.00012731,"INCLINATION":43.0017,"RA_OF_ASC_NODE":269.8725,"ARG_OF_PERICENTER":273.2122,"MEAN_ANOMALY":86.8584,"EPHEMERIS_TYPE":0,"CLASSIFICATION_TYPE":"U","NORAD_CAT_ID":59791,"ELEMENT_SET_NO":999,"REV_AT_EPOCH":9129,"BSTAR":6.0424704e-5,"MEAN_MOTION_DOT":1.401e-5,"MEAN_MOTION_DDOT":0},{"OBJECT_NAME":"STARLINK-31823","OBJECT_ID":"2024-093N","EPOCH":"2025-12-25T03:12:59.575968","MEAN_MOTION":15.27579891,"ECCENTRICITY":5.01e-5,"INCLINATION":42.998,"RA_OF_ASC_NODE":269.9046,"ARG_OF_PERICENTER":305.429,"MEAN_ANOMALY":54.6515,"EPHEMERIS_TYPE":0,"CLASSIFICATION_TYPE":"U","NORAD_CAT_ID":59794,"ELEMENT_SET_NO":999,"REV_AT_EPOCH":9129,"BSTAR":2.9405e-5,"MEAN_MOTION_DOT":5.48e-6,"MEAN_MOTION_DDOT":0},{"OBJECT_NAME":"STARLINK-31916","OBJECT_ID":"2024-093P","EPOCH":"2025-12-25T19:00:06.918336","MEAN_MOTION":15.27571876,"ECCENTRICITY":2.81e-5,"INCLINATION":42.9999,"RA_OF_ASC_NODE":266.2361,"ARG_OF_PERICENTER":254.1993,"MEAN_ANOMALY":105.8828,"EPHEMERIS_TYPE":0,"CLASSIFICATION_TYPE":"U","NORAD_CAT_ID":59795,"ELEMENT_SET_NO":999,"REV_AT_EPOCH":9139,"BSTAR":3.1512e-5,"MEAN_MOTION_DOT":6.05e-6,"MEAN_MOTION_DDOT":0},{"OBJECT_NAME":"STARLINK-31907","OBJECT_ID":"2024-093R","EPOCH":"2025-12-25T19:03:49.703328","MEAN_MOTION":15.27566122,"ECCENTRICITY":5.41e-5,"INCLINATION":42.9998,"RA_OF_ASC_NODE":266.2564,"ARG_OF_PERICENTER":284.2756,"MEAN_ANOMALY":75.8035,"EPHEMERIS_TYPE":0,"CLASSIFICATION_TYPE":"U","NORAD_CAT_ID":59797,"ELEMENT_SET_NO":999,"REV_AT_EPOCH":9139,"BSTAR":-6.0889e-7,"MEAN_MOTION_DOT":-2.78e-6,"MEAN_MOTION_DDOT":0},{"OBJECT_NAME":"STARLINK-31687","OBJECT_ID":"2024-093S","EPOCH":"2025-12-25T02:25:06.108096","MEAN_MOTION":15.27575553,"ECCENTRICITY":0.00011658,"INCLINATION":43.0014,"RA_OF_ASC_NODE":270.5138,"ARG_OF_PERICENTER":273.9284,"MEAN_ANOMALY":86.1435,"EPHEMERIS_TYPE":0,"CLASSIFICATION_TYPE":"U","NORAD_CAT_ID":59798,"ELEMENT_SET_NO":999,"REV_AT_EPOCH":9128,"BSTAR":4.2691866e-5,"MEAN_MOTION_DOT":9.13e-6,"MEAN_MOTION_DDOT":0},{"OBJECT_NAME":"STARLINK-31810","OBJECT_ID":"2024-093T","EPOCH":"2025-12-25T02:04:44.334336","MEAN_MOTION":15.27580029,"ECCENTRICITY":0.00014437,"INCLINATION":43.0014,"RA_OF_ASC_NODE":270.4041,"ARG_OF_PERICENTER":259.6519,"MEAN_ANOMALY":100.417,"EPHEMERIS_TYPE":0,"CLASSIFICATION_TYPE":"U","NORAD_CAT_ID":59799,"ELEMENT_SET_NO":999,"REV_AT_EPOCH":9128,"BSTAR":4.0358488e-5,"MEAN_MOTION_DOT":8.49e-6,"MEAN_MOTION_DDOT":0},{"OBJECT_NAME":"STARLINK-31812","OBJECT_ID":"2024-093U","EPOCH":"2025-12-25T17:35:12.542784","MEAN_MOTION":15.27573657,"ECCENTRICITY":7.47e-5,"INCLINATION":42.9997,"RA_OF_ASC_NODE":266.6546,"ARG_OF_PERICENTER":266.6927,"MEAN_ANOMALY":93.3839,"EPHEMERIS_TYPE":0,"CLASSIFICATION_TYPE":"U","NORAD_CAT_ID":59800,"ELEMENT_SET_NO":999,"REV_AT_EPOCH":9145,"BSTAR":4.7058e-5,"MEAN_MOTION_DOT":1.033e-5,"MEAN_MOTION_DDOT":0},{"OBJECT_NAME":"STARLINK-31815","OBJECT_ID":"2024-093V","EPOCH":"2025-12-25T01:59:11.451552","MEAN_MOTION":15.27577832,"ECCENTRICITY":9.997e-5,"INCLINATION":43.0042,"RA_OF_ASC_NODE":270.3744,"ARG_OF_PERICENTER":276.853,"MEAN_ANOMALY":83.2208,"EPHEMERIS_TYPE":0,"CLASSIFICATION_TYPE":"U","NORAD_CAT_ID":59801,"ELEMENT_SET_NO":999,"REV_AT_EPOCH":9128,"BSTAR":7.0590078e-5,"MEAN_MOTION_DOT":1.681e-5,"MEAN_MOTION_DDOT":0},{"OBJECT_NAME":"STARLINK-31814","OBJECT_ID":"2024-093W","EPOCH":"2025-12-25T04:04:48.065664","MEAN_MOTION":15.27582635,"ECCENTRICITY":0.000128,"INCLINATION":43.0008,"RA_OF_ASC_NODE":270.1557,"ARG_OF_PERICENTER":269.8964,"MEAN_ANOMALY":90.1741,"EPHEMERIS_TYPE":0,"CLASSIFICATION_TYPE":"U","NORAD_CAT_ID":59802,"ELEMENT_SET_NO":999,"REV_AT_EPOCH":9129,"BSTAR":1.7173e-5,"MEAN_MOTION_DOT":2.11e-6,"MEAN_MOTION_DDOT":0},{"OBJECT_NAME":"STARLINK-31794","OBJECT_ID":"2024-093X","EPOCH":"2025-12-25T19:31:34.696128","MEAN_MOTION":15.27579818,"ECCENTRICITY":0.0001473,"INCLINATION":43.0001,"RA_OF_ASC_NODE":266.3979,"ARG_OF_PERICENTER":263.7536,"MEAN_ANOMALY":96.3148,"EPHEMERIS_TYPE":0,"CLASSIFICATION_TYPE":"U","NORAD_CAT_ID":59803,"ELEMENT_SET_NO":999,"REV_AT_EPOCH":9146,"BSTAR":9.039e-5,"MEAN_MOTION_DOT":2.226e-5,"MEAN_MOTION_DDOT":0},{"OBJECT_NAME":"STARLINK-31824","OBJECT_ID":"2024-093Y","EPOCH":"2025-12-25T17:51:52.394688","MEAN_MOTION":15.27583155,"ECCENTRICITY":6.05e-5,"INCLINATION":43.0014,"RA_OF_ASC_NODE":266.7434,"ARG_OF_PERICENTER":280.2794,"MEAN_ANOMALY":79.799,"EPHEMERIS_TYPE":0,"CLASSIFICATION_TYPE":"U","NORAD_CAT_ID":59804,"ELEMENT_SET_NO":999,"REV_AT_EPOCH":9138,"BSTAR":-8.239e-5,"MEAN_MOTION_DOT":-2.528e-5,"MEAN_MOTION_DDOT":0},{"OBJECT_NAME":"STARLINK-31947","OBJECT_ID":"2024-097A","EPOCH":"2025-12-25T15:14:09.470112","MEAN_MOTION":15.27599033,"ECCENTRICITY":0.0001616,"INCLINATION":43.003,"RA_OF_ASC_NODE":332.3669,"ARG_OF_PERICENTER":242.8724,"MEAN_ANOMALY":117.1963,"EPHEMERIS_TYPE":0,"CLASSIFICATION_TYPE":"U","NORAD_CAT_ID":59835,"ELEMENT_SET_NO":999,"REV_AT_EPOCH":9059,"BSTAR":-0.00010171,"MEAN_MOTION_DOT":-3.062e-5,"MEAN_MOTION_DDOT":0},{"OBJECT_NAME":"STARLINK-31929","OBJECT_ID":"2024-097B","EPOCH":"2025-12-25T00:29:56.732064","MEAN_MOTION":15.27584673,"ECCENTRICITY":0.00010264,"INCLINATION":43.0024,"RA_OF_ASC_NODE":336.3574,"ARG_OF_PERICENTER":232.1272,"MEAN_ANOMALY":127.9487,"EPHEMERIS_TYPE":0,"CLASSIFICATION_TYPE":"U","NORAD_CAT_ID":59836,"ELEMENT_SET_NO":999,"REV_AT_EPOCH":9049,"BSTAR":4.9159519e-5,"MEAN_MOTION_DOT":1.091e-5,"MEAN_MOTION_DDOT":0},{"OBJECT_NAME":"STARLINK-31927","OBJECT_ID":"2024-097C","EPOCH":"2025-12-25T15:40:03.920160","MEAN_MOTION":15.27576184,"ECCENTRICITY":7.8e-5,"INCLINATION":42.9995,"RA_OF_ASC_NODE":332.5019,"ARG_OF_PERICENTER":273.3054,"MEAN_ANOMALY":86.7709,"EPHEMERIS_TYPE":0,"CLASSIFICATION_TYPE":"U","NORAD_CAT_ID":59837,"ELEMENT_SET_NO":999,"REV_AT_EPOCH":9059,"BSTAR":1.0253e-5,"MEAN_MOTION_DOT":2.0e-7,"MEAN_MOTION_DDOT":0}]
