STARLINK-31888          
1 59788U 24093G   25359.44554758  .00003085  00000+0  12166-3 0  9995
2 59788  42.9998 267.9370 0000943 283.4458  76.6288 15.27557115 91347
STARLINK-31863          
1 59789U 24093H   25359.44297560 -.00000570  00000+0 -11201-4 0  9999
2 59789  42.9996 267.9232 0000587 352.6590   7.4253 15.27583317 91340
STARLINK-31873          
1 59790U 24093J   25359.12631292  .00002391  00000+0  96371-4 0  9992
2 59790  42.9972 269.8446 0001247 252.9631 107.1084 15.27581212 91292
STARLINK-31865          
1 59791U 24093K   25359.13016553  .00001401  00000+0  60425-4 0  9993
2 59791  43.0017 269.8725 0001273 273.2122  86.8584 15.27584303 91297
STARLINK-31823          
1 59794U 24093N   25359.13402287  .00000548  00000+0  29405-4 0  9993
2 59794  42.9980 269.9046 0000501 305.4290  54.6515 15.27579891 91294
STARLINK-31916          
1 59795U 24093P   25359.79174674  .00000605  00000+0  31512-4 0  9998
2 59795  42.9999 266.2361 0000281 254.1993 105.8828 15.27571876 91392
STARLINK-31907          
1 59797U 24093R   25359.79432527 -.00000278  00000+0 -60889-6 0  9993
2 59797  42.9998 266.2564 0000541 284.2756  75.8035 15.27566122 91392
STARLINK-31687          
1 59798U 24093S   25359.10076514  .00000913  00000+0  42692-4 0  9993
2 59798  43.0014 270.5138 0001165 273.9284  86.1435 15.27575553 91288
STARLINK-31810          
1 59799U 24093T   25359.08662424  .00000849  00000+0  40358-4 0  9997
2 59799  43.0014 270.4041 0001443 259.6519 100.4170 15.27580029 91282
STARLINK-31812          
1 59800U 24093U   25359.73278406  .00001033  00000+0  47058-4 0  9995
2 59800  42.9997 266.6546 0000747 266.6927  93.3839 15.27573657 91457
STARLINK-31815          
1 59801U 24093V   25359.08277143  .00001681  00000+0  70590-4 0  9997
2 59801  43.0042 270.3744 0000999 276.8530  83.2208 15.27577832 91283
STARLINK-31814          
1 59802U 24093W   25359.17000076  .00000211  00000+0  17173-4 0  9993
2 59802  43.0008 270.1557 0001280 269.8964  90.1741 15.27582635 91290
STARLINK-31794          
1 59803U 24093X   25359.81359602  .00002226  00000+0  90390-4 0  9997
2 59803  43.0001 266.3979 0001473 263.7536  96.3148 15.27579818 91468
STARLINK-31824          
1 59804U 24093Y   25359.74435642 -.00002528  00000+0 -82390-4 0  9997
2 59804  43.0014 266.7434 0000605 280.2794  79.7990 15.27583155 91389
STARLINK-31947          
1 59835U 24097A   25359.63483183 -.00003062  00000+0 -10171-3 0  9997
2 59835  43.0030 332.3669 0001616 242.8724 117.1963 15.27599033 90592
STARLINK-31929          
1 59836U 24097B   25359.02079551  .00001091  00000+0  49160-4 0  9990
2 59836  43.0024 336.3574 0001026 232.1272 127.9487 15.27584673 90493
STARLINK-31927          
1 59837U 24097C   25359.65282315  .00000020  00000+0  10253-4 0  9996
2 59837  42.9995 332.5019 0000780 273.3054  86.7709 15.27576184 90590
